OBJECT_NAME,OBJECT_ID,EPOCH,MEAN_MOTION,ECCENTRICITY,INCLINATION,RA_OF_ASC_NODE,ARG_OF_PERICENTER,MEAN_ANOMALY,EPHEMERIS_TYPE,CLASSIFICATION_TYPE,NORAD_CAT_ID,ELEMENT_SET_NO,REV_AT_EPOCH,BSTAR,MEAN_MOTION_DOT,MEAN_MOTION_DDOT
BEIDOU-2 M4,2012-018B,2026-05-08T22:09:07.925760,1.86229854,.00108839,55.6931,305.4151,282.3733,77.4996,0,U,38251,999,9521,0,-.36E-6,0
ARIRANG-3 (KOMPSAT-3),2012-025B,2026-05-12T04:11:29.122368,14.62173724,.0004386,98.1155,90.2624,216.2886,143.8019,0,U,38338,999,74608,.57218E-4,.241E-5,0
METOP-B,2012-049A,2026-05-12T03:34:44.912352,14.21422414,.0003519,98.6529,184.3625,93.9379,266.2201,0,U,38771,999,70814,.45342E-4,.56E-6,0
SJ-9A,2012-056A,2026-05-12T04:38:21.444000,14.85394625,.0026114,97.6689,105.4548,19.3699,340.8503,0,U,38860,999,69424,.97957E-4,.796E-5,0
COSMOS 2484 (RODNIK-S 6),2013-001C,2026-05-12T05:54:05.268384,12.42938614,.0027522,82.5015,244.2353,112.2036,248.1967,0,U,39059,999,60409,.80601E-3,.122E-5,0
SARAL,2013-009A,2026-05-12T03:32:52.188000,14.32846952,.0002644,98.5562,319.1713,54.1229,306.0200,0,U,39086,999,69044,.36205E-4,.55E-6,0
STRAND-1,2013-009E,2026-05-12T01:28:14.956608,14.37141382,.0008253,98.3916,313.1866,347.3335,12.7643,0,U,39090,999,69187,.75969E-4,.183E-5,0
BRITE-AUSTRIA,2013-009F,2026-05-12T01:24:27.912096,14.36527301,.0009999,98.3988,312.3904,355.1901,4.9188,0,U,39091,999,69186,.52429E-4,.111E-5,0
GAOFEN-1,2013-018A,2026-05-12T03:30:42.655392,14.76533782,.0017676,97.9100,204.9434,26.7255,333.4862,0,U,39150,999,70292,-.10574E-4,-.125E-5,0
NEE-01 PEGASO,2013-018B,2026-05-11T21:17:39.283872,14.93480823,.0011183,98.1175,274.8535,285.1037,74.8945,0,U,39151,999,70528,.17871E-3,.182E-4,0
PROBA-V,2013-021A,2026-05-12T04:53:05.544096,14.23589123,.000317,98.3570,112.5910,227.6316,132.4595,0,U,39159,999,67599,.36758E-4,.43E-6,0
ARIRANG-5 (KOMPSAT-5),2013-042A,2026-05-11T23:38:59.723808,15.04563439,.0001839,97.6223,319.1940,258.8276,101.2743,0,U,39227,999,69841,.10097E-3,.1355E-4,0
GONETS-M 5,2013-048A,2026-05-12T03:11:17.384640,12.42890852,.001584,82.4859,5.8619,294.3779,65.5647,0,U,39249,999,57440,-.36482E-4,.5E-7,0
GONETS-M 7,2013-048C,2026-05-12T04:14:48.715872,12.42913230,.0016671,82.4926,8.7373,295.5364,64.3992,0,U,39251,999,57436,-.98047E-3,-.126E-5,0
FENGYUN 3C,2013-052A,2026-05-12T05:05:34.135296,14.15746444,.0015613,98.4962,107.7439,124.2089,236.0568,0,U,39260,999,65347,.40818E-4,.39E-6,0
CASSIOPE,2013-055A,2026-05-12T04:10:41.254176,15.22546815,.0301167,80.9127,110.3513,183.1367,176.7992,0,U,39265,999,66218,.23059E-3,.20229E-3,-.62514E-6
APRIZESAT 7,2013-066A,2026-05-12T03:04:35.693760,14.91479588,.0035139,97.7686,85.8738,333.3196,26.6213,0,U,39416,999,67585,.79452E-4,.746E-5,0
ZACUBE-1 (TSHEPISOSAT),2013-066B,2026-05-12T03:26:32.725248,15.00904333,.0041984,97.8118,94.2849,14.4700,345.7714,0,U,39417,999,67532,.23294E-3,.2957E-4,0
APRIZESAT 8,2013-066K,2026-05-12T02:07:29.786016,14.87572494,.004711,97.8201,80.0677,46.0815,314.4275,0,U,39425,999,67430,.82402E-4,.706E-5,0
TRITON-1,2013-066M,2026-05-12T05:34:25.620672,14.81545165,.0090248,97.8260,42.8581,352.6231,7.3647,0,U,39427,999,66876,.23446E-3,.1916E-4,0
