BEIDOU-2 M4             
1 38251U 12018B   26128.92300840 -.00000036  00000+0  00000+0 0  9994
2 38251  55.6931 305.4151 0010883 282.3733  77.4996  1.86229854 95211
ARIRANG-3 (KOMPSAT-3)   
1 38338U 12025B   26132.17464262  .00000241  00000+0  57218-4 0  9994
2 38338  98.1155  90.2624 0004386 216.2886 143.8019 14.62173724746081
METOP-B                 
1 38771U 12049A   26132.14913093  .00000056  00000+0  45342-4 0  9998
2 38771  98.6529 184.3625 0003519  93.9379 266.2201 14.21422414708148
SJ-9A                   
1 38860U 12056A   26132.19330375  .00000796  00000+0  97957-4 0  9996
2 38860  97.6689 105.4548 0026114  19.3699 340.8503 14.85394625694245
COSMOS 2484 (RODNIK-S 6)
1 39059U 13001C   26132.24589431  .00000122  00000+0  80601-3 0  9993
2 39059  82.5015 244.2353 0027522 112.2036 248.1967 12.42938614604091
SARAL                   
1 39086U 13009A   26132.14782625  .00000055  00000+0  36205-4 0  9997
2 39086  98.5562 319.1713 0002644  54.1229 306.0200 14.32846952690445
STRAND-1                
1 39090U 13009E   26132.06128422  .00000183  00000+0  75969-4 0  9994
2 39090  98.3916 313.1866 0008253 347.3335  12.7643 14.37141382691871
BRITE-AUSTRIA           
1 39091U 13009F   26132.05865639  .00000111  00000+0  52429-4 0  9999
2 39091  98.3988 312.3904 0009999 355.1901   4.9188 14.36527301691863
GAOFEN-1                
1 39150U 13018A   26132.14632703 -.00000125  00000+0 -10574-4 0  9991
2 39150  97.9100 204.9434 0017676  26.7255 333.4862 14.76533782702921
NEE-01 PEGASO           
1 39151U 13018B   26131.88726023  .00001820  00000+0  17871-3 0  9998
2 39151  98.1175 274.8535 0011183 285.1037  74.8945 14.93480823705287
PROBA-V                 
1 39159U 13021A   26132.20353639  .00000043  00000+0  36758-4 0  9998
2 39159  98.3570 112.5910 0003170 227.6316 132.4595 14.23589123675991
ARIRANG-5 (KOMPSAT-5)   
1 39227U 13042A   26131.98541347  .00001355  00000+0  10097-3 0  9990
2 39227  97.6223 319.1940 0001839 258.8276 101.2743 15.04563439698416
GONETS-M 5              
1 39249U 13048A   26132.13284010  .00000005  00000+0 -36482-4 0  9998
2 39249  82.4859   5.8619 0015840 294.3779  65.5647 12.42890852574407
GONETS-M 7              
1 39251U 13048C   26132.17695273 -.00000126  00000+0 -98047-3 0  9991
2 39251  82.4926   8.7373 0016671 295.5364  64.3992 12.42913230574361
FENGYUN 3C              
1 39260U 13052A   26132.21220064  .00000039  00000+0  40818-4 0  9998
2 39260  98.4962 107.7439 0015613 124.2089 236.0568 14.15746444653478
CASSIOPE                
1 39265U 13055A   26132.17408859  .00020229 -62514-6  23059-3 0  9997
2 39265  80.9127 110.3513 0301167 183.1367 176.7992 15.22546815662188
APRIZESAT 7             
1 39416U 13066A   26132.12819090  .00000746  00000+0  79452-4 0  9990
2 39416  97.7686  85.8738 0035139 333.3196  26.6213 14.91479588675853
ZACUBE-1 (TSHEPISOSAT)  
1 39417U 13066B   26132.14343432  .00002957  00000+0  23294-3 0  9993
2 39417  97.8118  94.2849 0041984  14.4700 345.7714 15.00904333675320
APRIZESAT 8             
1 39425U 13066K   26132.08853919  .00000706  00000+0  82402-4 0  9998
2 39425  97.8201  80.0677 0047110  46.0815 314.4275 14.87572494674304
TRITON-1                
1 39427U 13066M   26132.23224098  .00001916  00000+0  23446-3 0  9993
2 39427  97.8260  42.8581 0090248 352.6231   7.3647 14.81545165668762
